start=new Date('2022-10-15T00:00:00.000Z').valueOf();
sats=[{"LAUNCH_DATE":"2022-10-05","TLE_LINE1":"1 53999U 22125AM  22287.75001157 -.00433425  00000-0 -32002-2 0  9996","MEAN_ELEMENT_THEORY":"SGP4","REF_FRAME":"TEME","PERIAPSIS":"347.478","RA_OF_ASC_NODE":"48.0920","GP_ID":"215146042","APOAPSIS":"350.202","OBJECT_TYPE":"PAYLOAD","SITE":"AFWTR","ECCENTRICITY":"0.00020240","BSTAR":"-0.00320020000000","CENTER_NAME":"EARTH","TIME_SYSTEM":"UTC","RCS_SIZE":null,"PERIOD":"91.514","DECAY_DATE":null,"MEAN_MOTION_DDOT":"0.0000000000000","ELEMENT_SET_NO":"999","SEMIMAJOR_AXIS":"6726.975","MEAN_ANOMALY":"153.2445","OBJECT_ID":"2022-125AM","CLASSIFICATION_TYPE":"U","MEAN_MOTION":"15.73522813","NORAD_CAT_ID":"53999","MEAN_MOTION_DOT":"-0.00433425","FILE":"3612869","INCLINATION":"53.2176","ARG_OF_PERICENTER":"29.2122","EPHEMERIS_TYPE":"0","EPOCH":"2022-10-14T18:00:00.999648","COUNTRY_CODE":"US","TLE_LINE2":"2 53999  53.2176  48.0920 0002024  29.2122 153.2445 15.73522813  1305","REV_AT_EPOCH":"130","OBJECT_NAME":"STARLINK-5079"},{"CLASSIFICATION_TYPE":"U","OBJECT_ID":"2022-125AN","MEAN_ANOMALY":"20.4199","ELEMENT_SET_NO":"999","MEAN_MOTION_DDOT":"0.0000000000000","SEMIMAJOR_AXIS":"6727.571","PERIOD":"91.527","DECAY_DATE":null,"TLE_LINE2":"2 54000  53.2171  47.2603 0001574  29.6198  20.4199 15.73313741  1308","REV_AT_EPOCH":"130","OBJECT_NAME":"STARLINK-5088","EPOCH":"2022-10-14T22:00:00.999936","EPHEMERIS_TYPE":"0","COUNTRY_CODE":"US","MEAN_MOTION_DOT":"-0.00171802","FILE":"3612869","ARG_OF_PERICENTER":"29.6198","INCLINATION":"53.2171","MEAN_MOTION":"15.73313741","NORAD_CAT_ID":"54000","REF_FRAME":"TEME","PERIAPSIS":"348.377","LAUNCH_DATE":"2022-10-05","TLE_LINE1":"1 54000U 22125AN  22287.91667824 -.00171802  00000-0 -12387-2 0  9999","MEAN_ELEMENT_THEORY":"SGP4","CENTER_NAME":"EARTH","TIME_SYSTEM":"UTC","RCS_SIZE":null,"BSTAR":"-0.00123870000000","ECCENTRICITY":"0.00015740","RA_OF_ASC_NODE":"47.2603","GP_ID":"215146794","APOAPSIS":"350.495","OBJECT_TYPE":"PAYLOAD","SITE":"AFWTR"},{"ECCENTRICITY":"0.00018740","SITE":"AFWTR","OBJECT_TYPE":"PAYLOAD","APOAPSIS":"350.212","RA_OF_ASC_NODE":"47.6721","GP_ID":"215146628","RCS_SIZE":null,"TIME_SYSTEM":"UTC","CENTER_NAME":"EARTH","BSTAR":"-0.00287470000000","MEAN_ELEMENT_THEORY":"SGP4","TLE_LINE1":"1 54001U 22125AP  22287.83334491 -.00390678  00000-0 -28747-2 0  9993","LAUNCH_DATE":"2022-10-05","PERIAPSIS":"347.691","REF_FRAME":"TEME","INCLINATION":"53.2172","ARG_OF_PERICENTER":"33.4248","FILE":"3612869","MEAN_MOTION_DOT":"-0.00390678","NORAD_CAT_ID":"54001","MEAN_MOTION":"15.73483675","OBJECT_NAME":"STARLINK-5105","REV_AT_EPOCH":"130","TLE_LINE2":"2 54001  53.2172  47.6721 0001874  33.4248 264.8711 15.73483675  1305","COUNTRY_CODE":"US","EPHEMERIS_TYPE":"0","EPOCH":"2022-10-14T20:00:01.000224","SEMIMAJOR_AXIS":"6727.087","ELEMENT_SET_NO":"999","MEAN_MOTION_DDOT":"0.0000000000000","DECAY_DATE":null,"PERIOD":"91.517","CLASSIFICATION_TYPE":"U","OBJECT_ID":"2022-125AP","MEAN_ANOMALY":"264.8711"},{"EPOCH":"2022-10-14T22:00:00.999936","EPHEMERIS_TYPE":"0","COUNTRY_CODE":"US","TLE_LINE2":"2 54002  53.2171  47.2567 0001237  58.8621 352.9326 15.73372945  1306","REV_AT_EPOCH":"130","OBJECT_NAME":"STARLINK-5109","MEAN_MOTION":"15.73372945","NORAD_CAT_ID":"54002","MEAN_MOTION_DOT":"-0.00255168","FILE":"3612869","INCLINATION":"53.2171","ARG_OF_PERICENTER":"58.8621","MEAN_ANOMALY":"352.9326","OBJECT_ID":"2022-125AQ","CLASSIFICATION_TYPE":"U","PERIOD":"91.523","DECAY_DATE":null,"ELEMENT_SET_NO":"999","MEAN_MOTION_DDOT":"0.0000000000000","SEMIMAJOR_AXIS":"6727.402","BSTAR":"-0.00185550000000","CENTER_NAME":"EARTH","TIME_SYSTEM":"UTC","RCS_SIZE":null,"RA_OF_ASC_NODE":"47.2567","GP_ID":"215145876","APOAPSIS":"350.099","OBJECT_TYPE":"PAYLOAD","SITE":"AFWTR","ECCENTRICITY":"0.00012370","REF_FRAME":"TEME","PERIAPSIS":"348.435","LAUNCH_DATE":"2022-10-05","TLE_LINE1":"1 54002U 22125AQ  22287.91667824 -.00255168  00000-0 -18555-2 0  9992","MEAN_ELEMENT_THEORY":"SGP4"},{"INCLINATION":"53.2171","ARG_OF_PERICENTER":"30.6331","FILE":"3612869","MEAN_MOTION_DOT":"-0.00128294","NORAD_CAT_ID":"54003","MEAN_MOTION":"15.73283950","OBJECT_NAME":"STARLINK-5114","REV_AT_EPOCH":"130","TLE_LINE2":"2 54003  53.2171  47.2626 0001557  30.6331  18.2302 15.73283950  1307","COUNTRY_CODE":"US","EPHEMERIS_TYPE":"0","EPOCH":"2022-10-14T22:00:00.999936","SEMIMAJOR_AXIS":"6727.656","MEAN_MOTION_DDOT":"0.0000000000000","ELEMENT_SET_NO":"999","DECAY_DATE":null,"PERIOD":"91.528","CLASSIFICATION_TYPE":"U","MEAN_ANOMALY":"18.2302","OBJECT_ID":"2022-125AR","ECCENTRICITY":"0.00015570","SITE":"AFWTR","OBJECT_TYPE":"PAYLOAD","APOAPSIS":"350.568","GP_ID":"215146461","RA_OF_ASC_NODE":"47.2626","RCS_SIZE":null,"TIME_SYSTEM":"UTC","CENTER_NAME":"EARTH","BSTAR":"-0.00092032000000","MEAN_ELEMENT_THEORY":"SGP4","TLE_LINE1":"1 54003U 22125AR  22287.91667824 -.00128294  00000-0 -92032-3 0  9995","LAUNCH_DATE":"2022-10-05","PERIAPSIS":"348.473","REF_FRAME":"TEME"},{"EPOCH":"2022-10-14T18:00:00.999648","EPHEMERIS_TYPE":"0","COUNTRY_CODE":"US","OBJECT_NAME":"STARLINK-5129","REV_AT_EPOCH":"130","TLE_LINE2":"2 54004  53.2176  48.0815 0001815  32.5465 155.1079 15.73720438  1307","NORAD_CAT_ID":"54004","MEAN_MOTION":"15.73720438","FILE":"3612869","INCLINATION":"53.2176","ARG_OF_PERICENTER":"32.5465","MEAN_MOTION_DOT":"-0.00616323","MEAN_ANOMALY":"155.1079","OBJECT_ID":"2022-125AS","CLASSIFICATION_TYPE":"U","PERIOD":"91.503","DECAY_DATE":null,"SEMIMAJOR_AXIS":"6726.412","MEAN_MOTION_DDOT":"0.0000000000000","ELEMENT_SET_NO":"999","BSTAR":"-0.00461190000000","TIME_SYSTEM":"UTC","RCS_SIZE":null,"CENTER_NAME":"EARTH","OBJECT_TYPE":"PAYLOAD","SITE":"AFWTR","GP_ID":"215147044","RA_OF_ASC_NODE":"48.0815","APOAPSIS":"349.498","ECCENTRICITY":"0.00018150","PERIAPSIS":"347.056","REF_FRAME":"TEME","MEAN_ELEMENT_THEORY":"SGP4","LAUNCH_DATE":"2022-10-05","TLE_LINE1":"1 54004U 22125AS  22287.75001157 -.00616323  00000-0 -46119-2 0  9998"},{"PERIOD":"91.506","DECAY_DATE":null,"ELEMENT_SET_NO":"999","MEAN_MOTION_DDOT":"0.0000000000000","SEMIMAJOR_AXIS":"6726.551","MEAN_ANOMALY":"148.3377","OBJECT_ID":"2022-125AT","CLASSIFICATION_TYPE":"U","MEAN_MOTION":"15.73671625","NORAD_CAT_ID":"54005","MEAN_MOTION_DOT":"-0.00573411","FILE":"3612869","ARG_OF_PERICENTER":"38.1673","INCLINATION":"53.2176","EPHEMERIS_TYPE":"0","EPOCH":"2022-10-14T18:00:00.999648","COUNTRY_CODE":"US","TLE_LINE2":"2 54005  53.2176  48.0837 0001914  38.1673 148.3377 15.73671625  1303","REV_AT_EPOCH":"130","OBJECT_NAME":"STARLINK-5135","LAUNCH_DATE":"2022-10-05","TLE_LINE1":"1 54005U 22125AT  22287.75001157 -.00573411  00000-0 -42778-2 0  9996","MEAN_ELEMENT_THEORY":"SGP4","REF_FRAME":"TEME","PERIAPSIS":"347.128","RA_OF_ASC_NODE":"48.0837","GP_ID":"215146877","APOAPSIS":"349.703","OBJECT_TYPE":"PAYLOAD","SITE":"AFWTR","ECCENTRICITY":"0.00019140","BSTAR":"-0.00427780000000","CENTER_NAME":"EARTH","TIME_SYSTEM":"UTC","RCS_SIZE":null},{"REF_FRAME":"TEME","PERIAPSIS":"346.629","LAUNCH_DATE":"2022-10-05","TLE_LINE1":"1 54006U 22125AU  22287.75001157 -.00718191  00000-0 -54089-2 0  9991","MEAN_ELEMENT_THEORY":"SGP4","BSTAR":"-0.00540890000000","CENTER_NAME":"EARTH","TIME_SYSTEM":"UTC","RCS_SIZE":null,"GP_ID":"215146294","RA_OF_ASC_NODE":"48.0757","APOAPSIS":"349.176","OBJECT_TYPE":"PAYLOAD","SITE":"AFWTR","ECCENTRICITY":"0.00018930","MEAN_ANOMALY":"152.0299","OBJECT_ID":"2022-125AU","CLASSIFICATION_TYPE":"U","PERIOD":"91.495","DECAY_DATE":null,"MEAN_MOTION_DDOT":"0.0000000000000","ELEMENT_SET_NO":"999","SEMIMAJOR_AXIS":"6726.038","EPHEMERIS_TYPE":"0","EPOCH":"2022-10-14T18:00:00.999648","COUNTRY_CODE":"US","TLE_LINE2":"2 54006  53.2176  48.0757 0001893  38.4776 152.0299 15.73851779  1303","REV_AT_EPOCH":"130","OBJECT_NAME":"STARLINK-5096","MEAN_MOTION":"15.73851779","NORAD_CAT_ID":"54006","MEAN_MOTION_DOT":"-0.00718191","FILE":"3612869","ARG_OF_PERICENTER":"38.4776","INCLINATION":"53.2176"},{"NORAD_CAT_ID":"54007","MEAN_MOTION":"15.73753617","FILE":"3612869","INCLINATION":"53.2176","ARG_OF_PERICENTER":"27.9277","MEAN_MOTION_DOT":"-0.00645343","EPOCH":"2022-10-14T18:00:00.999648","EPHEMERIS_TYPE":"0","COUNTRY_CODE":"US","REV_AT_EPOCH":"130","OBJECT_NAME":"STARLINK-5132","TLE_LINE2":"2 54007  53.2176  48.0803 0001715  27.9277 160.2933 15.73753617  1306","PERIOD":"91.501","DECAY_DATE":null,"SEMIMAJOR_AXIS":"6726.317","MEAN_MOTION_DDOT":"0.0000000000000","ELEMENT_SET_NO":"999","OBJECT_ID":"2022-125AV","MEAN_ANOMALY":"160.2933","CLASSIFICATION_TYPE":"U","OBJECT_TYPE":"PAYLOAD","SITE":"AFWTR","RA_OF_ASC_NODE":"48.0803","GP_ID":"215146043","APOAPSIS":"349.336","ECCENTRICITY":"0.00017150","BSTAR":"-0.00483900000000","TIME_SYSTEM":"UTC","RCS_SIZE":null,"CENTER_NAME":"EARTH","MEAN_ELEMENT_THEORY":"SGP4","LAUNCH_DATE":"2022-10-05","TLE_LINE1":"1 54007U 22125AV  22287.75001157 -.00645343  00000-0 -48390-2 0  9998","PERIAPSIS":"347.029","REF_FRAME":"TEME"},{"PERIAPSIS":"328.494","REF_FRAME":"TEME","MEAN_ELEMENT_THEORY":"SGP4","LAUNCH_DATE":"2022-10-05","TLE_LINE1":"1 54008U 22125AW  22287.75001157  .00181973  00000-0  93323-3 0  9998","BSTAR":"0.00093323000000","TIME_SYSTEM":"UTC","RCS_SIZE":null,"CENTER_NAME":"EARTH","OBJECT_TYPE":"PAYLOAD","SITE":"AFWTR","RA_OF_ASC_NODE":"48.0294","GP_ID":"215146795","APOAPSIS":"331.074","ECCENTRICITY":"0.00019230","OBJECT_ID":"2022-125AW","MEAN_ANOMALY":"202.8552","CLASSIFICATION_TYPE":"U","PERIOD":"91.126","DECAY_DATE":null,"SEMIMAJOR_AXIS":"6707.919","MEAN_MOTION_DDOT":"0.0000000000000","ELEMENT_SET_NO":"999","EPOCH":"2022-10-14T18:00:00.999648","EPHEMERIS_TYPE":"0","COUNTRY_CODE":"US","REV_AT_EPOCH":"130","OBJECT_NAME":"STARLINK-5145","TLE_LINE2":"2 54008  53.2254  48.0294 0001923  13.6401 202.8552 15.80232782  1303","NORAD_CAT_ID":"54008","MEAN_MOTION":"15.80232782","FILE":"3612869","ARG_OF_PERICENTER":"13.6401","INCLINATION":"53.2254","MEAN_MOTION_DOT":"0.00181973"}];
